312P/NEAT,e,19.7665,144.6697,207.5205,3.467862,0.1526199,0.42809995,342.3017,06/01.0/2020,2000,g 16.0,4.0
# From MPEC 2019-TG9
313P/Gibbs,e,10.9833,105.9718,254.6108,3.161072,0.1753689,0.23478614,8.2105,06/01.0/2020,2000,g 15.0,4.0
# From MPC105243
314P/Montani,e,3.9790,267.6206,214.2329,7.276344,0.0502151,0.41630589,66.8251,06/01.0/2020,2000,g  9.5,4.0
# From MPC115888
315P/LONEOS,e,17.8327,69.1675,65.6289,4.941669,0.0897209,0.52258579,114.4806,06/01.0/2020,2000,g 11.0,4.0
# From MPC 92279
316P/LONEOS-Christensen,e,9.8810,246.7587,193.8522,4.347692,0.1087216,0.16052088,182.5166,06/01.0/2020,2000,g 13.5,4.0
# From MPEC 2020-C98
317P/WISE,e,11.9509,275.5199,334.9055,2.965208,0.1930285,0.57042267,337.3807,06/01.0/2020,2000,g 17.5,4.0
# From MPC102103
318P/McNaught-Hartley,e,17.8723,35.6511,313.1038,7.496373,0.0480206,0.67486789,80.7918,06/01.0/2020,2000,g  8.5,6.0
# From MPC 97499
319P/Catalina-McNaught,e,15.0955,111.3803,203.6110,3.569084,0.1461736,0.66647308,262.2927,06/01.0/2020,2000,g 15.0,4.0
# From MPC 96281
320P/McNaught,e,4.9090,295.9310,0.7681,3.094124,0.1810912,0.68572132,318.3231,06/01.0/2020,2000,g 20.5,4.0
# From MPC105243
321P/SOHO,e,20.0482,165.0434,172.7251,2.422995,0.2613216,0.98106607,0.0000,01/17.2520/2020,2000,g 20.0,4.0
# From MPC102103
322P/SOHO,e,11.4596,351.4688,56.9371,2.508443,0.2480834,0.97976512,0.0000,08/31.4992/2019,2000,g 19.0,4.0
# From MPEC 2016-Y36
323P/SOHO,e,5.3372,324.3746,353.0484,2.582386,0.2375048,0.98483356,0.0000,01/17.7567/2021,2000,g 20.0,4.0
# From MPC108598
324P/La Sagra,e,21.4226,270.6442,58.0487,3.095490,0.1809714,0.15453434,298.3755,06/01.0/2020,2000,g 13.0,4.0
# From MPC114609
325P/Yang-Gao,e,16.7006,257.5793,343.6825,3.524151,0.1489780,0.59378222,260.7827,06/01.0/2020,2000,g 14.0,4.0
# From MPC103849
326P/Hill,e,2.4707,99.8146,278.5873,4.064788,0.1202672,0.31718869,202.6164,06/01.0/2020,2000,g 13.5,4.0
# From MPC 97499
327P/Van Ness,e,36.2405,173.9700,185.0177,3.563150,0.1465389,0.56269272,239.2990,06/01.0/2020,2000,g 16.0,4.0
# From MPC109148
328P/LONEOS-Tucker,e,17.6668,341.6175,30.4848,4.196418,0.1146532,0.55149219,185.8503,06/01.0/2020,2000,g 14.5,4.0
# From MPC101101
329P/LINEAR-Catalina,e,21.6633,87.6860,343.5625,5.193454,0.0832760,0.67679329,136.9662,06/01.0/2020,2000,g 13.5,4.0
# From MPC105243
330P/Catalina,e,15.6941,293.0961,189.0162,6.633598,0.0576873,0.54888575,79.2091,06/01.0/2020,2000,g 12.0,4.0
# From MPC110497
331P/Gibbs,e,9.7403,216.7782,183.7120,3.003010,0.1893952,0.04055336,337.1845,06/01.0/2020,2000,g 12.0,4.0
# From MPEC 2016-K18
332P/Ikeya-Murakami,e,9.3809,3.7935,152.3787,3.087888,0.1816401,0.48944438,279.4465,06/01.0/2020,2000,g 18.0,4.0
# From MPEC 2016-EI8
332P-B/Ikeya-Murakami,e,9.3805,3.8028,152.3711,3.082329,0.1821317,0.48970701,359.9699,03/17.0/2016,2000,g 19.0,4.0
# From MPEC 2016-K18
332P-C/Ikeya-Murakami,e,9.3800,3.7939,152.3700,3.087854,0.1816431,0.48944979,279.4593,06/01.0/2020,2000,g 16.5,4.0
# From MPEC 2016-ED0
332P-D/Ikeya-Murakami,e,9.3761,3.7923,152.4393,3.081138,0.1822373,0.48977814,359.9486,03/17.0/2016,2000,g 19.0,4.0
# From MPEC 2016-ED0
332P-E/Ikeya-Murakami,e,9.3774,3.8228,152.2825,3.079877,0.1823493,0.48922008,359.9889,03/17.0/2016,2000,g 21.0,4.0
# From MPEC 2016-ED0
332P-F/Ikeya-Murakami,e,9.5293,3.4757,152.8203,3.163214,0.1751908,0.49918860,359.8501,03/17.0/2016,2000,g 21.0,4.0
# From MPEC 2016-ED0
332P-G/Ikeya-Murakami,e,9.2523,3.6955,154.4000,3.050519,0.1849880,0.49200362,359.9006,03/19.0/2016,2000,g 19.0,4.0
# From MPC100285
332P-H/Ikeya-Murakami,e,9.3805,3.7937,152.3707,3.088038,0.1816269,0.48948496,279.4014,06/01.0/2020,2000,g 19.0,4.0
# From MPEC 2016-ED0
332P-I/Ikeya-Murakami,e,9.3791,3.8048,152.3297,3.081767,0.1821815,0.48955490,359.9360,03/17.0/2016,2000,g 20.5,2.0
# From MPEC 2016-EI8
332P-J/Ikeya-Murakami,e,9.4296,3.6729,152.7712,3.115165,0.1792596,0.49429435,359.8613,03/17.0/2016,2000,g 20.5,2.0
# From MPC104796
333P/LINEAR,e,131.9801,115.6257,26.0550,4.219767,0.1137029,0.73635318,172.9948,06/01.0/2020,2000,g 15.0,4.0
# From MPC111774
334P/NEAT,e,20.5088,90.7503,89.7594,6.837259,0.0551291,0.35475961,59.9477,06/01.0/2020,2000,g 10.5,4.0
# From MPC100285
335P/Gibbs,e,7.2909,330.8422,162.2386,3.578960,0.1455689,0.54511032,243.1682,06/01.0/2020,2000,g 17.0,4.0
# From MPC105244
336P/McNaught,e,17.8340,298.2259,308.7139,5.029663,0.0873767,0.44575102,106.0538,06/01.0/2020,2000,g 13.5,4.0
# From MPC112394
337P/WISE,e,15.3741,106.0721,160.9750,3.287799,0.1653279,0.49694852,234.3724,06/01.0/2020,2000,g 17.0,4.0
# From MPC104796
338P/McNaught,e,25.3673,9.7867,4.3992,3.898724,0.1280325,0.41088497,164.7668,06/01.0/2020,2000,g 12.0,4.0
# From MPC101101
339P/Gibbs,e,5.7363,172.7520,27.5240,3.695269,0.1387506,0.63599747,195.4518,06/01.0/2020,2000,g 17.0,4.0
# From MPC102957
340P/Boattini,e,2.0798,291.7289,35.7773,4.251695,0.1124245,0.28053166,144.9802,06/01.0/2020,2000,g 13.0,4.0
# From MPC109148
341P/Gibbs,e,3.7943,30.0034,312.1001,4.294910,0.1107320,0.41497845,162.2427,06/01.0/2020,2000,g 12.5,4.0
# From MPC101101
342P/SOHO,e,12.0029,34.2294,66.9988,3.043656,0.1856140,0.98339291,0.0000,10/18.9908/2021,2000,g  9.0,4.0
# From MPC109148
343P/NEAT-LONEOS,e,5.5829,257.2429,137.3777,5.462783,0.0771939,0.58361775,94.2038,06/01.0/2020,2000,g 14.0,4.0
# From MPC109148
344P/Read,e,3.4901,273.1940,140.4233,4.868449,0.0917526,0.42135152,120.0679,06/01.0/2020,2000,g 13.0,4.0
# From MPC109148
345P/LINEAR,e,2.7263,154.4977,196.3436,4.040788,0.1213403,0.22044965,171.8025,06/01.0/2020,2000,g 12.0,4.0
# From MPC110086
346P/Catalina,e,22.1852,102.4693,336.0303,4.476977,0.1040463,0.50231526,125.1544,06/01.0/2020,2000,g 14.0,4.0
# From MPC108599
347P/PANSTARRS,e,11.7476,261.0482,98.2871,3.607597,0.1438391,0.38523114,195.3693,06/01.0/2020,2000,g 15.0,4.0
# From MPC104796
348P/PANSTARRS,e,17.7312,312.9383,135.2931,3.156114,0.1757823,0.30622076,250.8740,06/01.0/2020,2000,g 14.0,4.0
# From MPC112394
349P/Lemmon,e,5.4912,331.7511,256.0428,3.571617,0.1460181,0.29956234,147.4330,06/01.0/2020,2000,g 14.0,4.0
# From MPC111775
350P/McNaught,e,7.3567,65.4046,141.1695,4.098831,0.1187720,0.09065608,106.0140,06/01.0/2020,2000,g 14.0,4.0
# From MPC105244
351P/Wiegert-PANSTARRS,e,12.7910,283.4490,352.6091,4.436634,0.1054687,0.29620100,174.6931,06/01.0/2020,2000,g 12.5,4.0
# From MPC110086
352P/Skiff,e,21.0094,28.1113,309.1124,6.633903,0.0576833,0.61805648,62.0062,06/01.0/2020,2000,g 11.5,4.0
# From MPEC 2020-AA5
353P/McNaught,e,28.4247,121.5626,230.3711,4.171540,0.1156803,0.46976884,103.2753,06/01.0/2020,2000,g 14.5,4.0
# From MPC105545
354P/LINEAR,e,5.2554,320.1294,133.0730,2.290023,0.2844097,0.12564893,9.8053,06/01.0/2020,2000,g 15.5,4.0
# From MPEC 2020-AA5
355P/LINEAR-NEAT,e,11.0346,51.4451,336.2521,3.473053,0.1522779,0.50666828,146.5468,06/01.0/2020,2000,g 15.5,2.0
# From MPC109148
356P/WISE,e,9.6339,160.7889,226.0416,4.161376,0.1161044,0.35446983,104.1611,06/01.0/2020,2000,g 14.0,4.0
# From MPC114609
357P/Hill,e,6.3092,44.5881,1.4376,4.462657,0.1045475,0.43435764,76.7650,06/01.0/2020,2000,g 15.5,4.0
# From MPEC 2020-HN5
358P/PANSTARRS,e,11.0570,85.7179,299.7476,3.148931,0.1763841,0.23795498,137.8739,06/01.0/2020,2000,g 18.0,4.0
# From MPC110086
359P/LONEOS,e,10.2643,149.7606,200.1163,4.639389,0.0986309,0.32379092,100.1279,06/01.0/2020,2000,g 13.5,4.0
# From MPC108599
360P/WISE,e,24.0922,2.1968,354.1098,3.703258,0.1383019,0.49845738,140.6884,06/01.0/2020,2000,g 19.5,6.0
# From MPC114609
361P/Spacewatch,e,13.8853,203.2576,219.1260,4.941507,0.0897253,0.43772983,62.7944,06/01.0/2020,2000,g 12.0,4.0
# From MPEC 2017-V13
362P/,e,15.5603,192.5938,53.6668,3.967125,0.1247355,0.28004168,171.7528,06/01.0/2020,2000,g 12.9,2.0
# From MPC114609
363P/Lemmon,e,4.5056,155.8837,331.1080,3.468034,0.1526086,0.55756306,120.9105,06/01.0/2020,2000,g 17.5,4.0
# From MPC114609
364P/PANSTARRS,e,12.1482,46.2143,211.9746,2.878670,0.2017978,0.72254228,142.7943,06/01.0/2020,2000,g 17.0,2.0
# From MPC111775
365P/PANSTARRS,e,9.8379,87.4199,66.2231,3.180220,0.1737874,0.57492706,146.1308,06/01.0/2020,2000,g 17.0,4.0
# From MPC114610
366P/Spacewatch,e,8.8596,70.7527,153.1719,3.495529,0.1508116,0.34859076,102.6707,06/01.0/2020,2000,g 15.0,4.0
# From MPC112395
367P/Catalina,e,8.4638,58.7145,172.9245,3.505026,0.1501990,0.28064211,106.7256,06/01.0/2020,2000,g 17.5,2.0
# From MPC114610
368P/NEAT,e,15.4839,257.9723,118.7765,5.526447,0.0758639,0.62606858,47.4674,06/01.0/2020,2000,g 14.0,4.0
# From MPC114610
369P/Hill,e,10.3095,47.3081,13.2248,4.386728,0.1072737,0.55411575,63.8246,06/01.0/2020,2000,g 15.0,4.0
# From MPC114610
370P/NEAT,e,19.3984,55.1458,356.7107,6.437812,0.0603388,0.61429186,43.6042,06/01.0/2020,2000,g 13.0,4.0
# From MPC114610
371P/LINEAR-Skiff,e,17.3779,67.3274,308.4516,4.181489,0.1152677,0.47628316,69.7805,06/01.0/2020,2000,g 16.0,4.0
# From MPEC 2019-TG9
372P/McNaught,e,9.5096,325.8220,27.1007,4.501844,0.1031854,0.15247232,60.8284,06/01.0/2020,2000,g 13.5,4.0
# From MPC114610
373P/Rinner,e,13.7581,231.9521,221.1664,3.805632,0.1327590,0.39219599,55.6294,06/01.0/2020,2000,g 14.5,4.0
# From MPC114610
374P/Larson,e,10.7595,7.9175,51.5498,4.975769,0.0888002,0.46226619,45.0489,06/01.0/2020,2000,g 14.0,4.0
# From MPC114610
375P/Hill,e,17.3621,359.9507,119.4709,5.560381,0.0751705,0.65893509,39.6631,06/01.0/2020,2000,g 16.0,4.0
# From MPEC 2020-HN5
376P/LONEOS,e,1.1934,314.8366,285.3624,5.874352,0.0692252,0.51832838,17.0319,06/01.0/2020,2000,g 12.5,4.0
# From MPC115888
377P/Scotti,e,9.0219,226.0595,354.9599,6.714010,0.0566541,0.25279989,357.7225,06/01.0/2020,2000,g  9.5,4.0
# From MPEC 2019-TG9
378P/McNaught,e,19.1082,94.5166,194.1496,6.365973,0.0613630,0.46896422,351.2588,06/01.0/2020,2000,g 12.0,4.0
# From MPC115889
379P/Spacewatch,e,12.3859,183.9559,31.2652,3.528897,0.1486776,0.33892167,45.2537,06/01.0/2020,2000,g 15.0,4.0
# From MPEC 2020-HN5
380P/PANSTARRS,e,8.2492,133.0018,90.1028,4.545770,0.1016934,0.32964334,36.6139,06/01.0/2020,2000,g 12.5,4.0
# From MPEC 2019-TG9
